H1 CPF 01  gfz 2022 02 17 13  5482 terrasarx 
H2 0702601  6201 31698    2022 02 17 12 59 42 2022 02 22 00 00 42   120 1 1  0 0 0
H9
10 0 59628  10062.000000  0    4229382.618   4051477.832  -3635857.525
10 0 59628  10182.000000  0    3977632.012   3553678.089  -4367921.924
10 0 59628  10302.000000  0    3647493.943   2999164.369  -5023480.854
10 0 59628  10422.000000  0    3243882.122   2398965.706  -5591144.421
10 0 59628  10542.000000  0    2773168.583   1764782.185  -6061077.659
10 0 59628  10662.000000  0    2243077.562   1108754.857  -6425160.129
10 0 59628  10782.000000  0    1662554.844    443234.163  -6677113.809
10 0 59628  10902.000000  0    1041616.924   -219448.716  -6812600.815
10 0 59628  11022.000000  0     391179.022   -867206.145  -6829291.544
10 0 59628  11142.000000  0    -277133.905  -1488409.401  -6726898.456
10 0 59628  11262.000000  0    -951189.071  -2072091.130  -6507180.248
10 0 59628  11382.000000  0   -1618560.937  -2608134.998  -6173916.203
10 0 59628  11502.000000  0   -2266755.040  -3087449.132  -5732847.573
10 0 59628  11622.000000  0   -2883437.220  -3502120.076  -5191589.152
10 0 59628  11742.000000  0   -3456667.262  -3845547.027  -4559510.329
10 0 59628  11862.000000  0   -3975131.570  -4112551.983  -3847583.328
10 0 59628  11982.000000  0   -4428369.261  -4299463.252  -3068202.224
10 0 59628  12102.000000  0   -4806988.161  -4404170.941  -2234973.890
10 0 59628  12222.000000  0   -5102864.746  -4426151.754  -1362483.277
10 0 59628  12342.000000  0   -5309322.979  -4366462.277   -466037.461
10 0 59628  12462.000000  0   -5421287.396  -4227700.549    438606.864
10 0 59628  12582.000000  0   -5435405.952  -4013936.375   1335527.968
10 0 59628  12702.000000  0   -5350137.831  -3730610.610   2208929.195
10 0 59628  12822.000000  0   -5165804.161  -3384406.074   3043426.271
10 0 59628  12942.000000  0   -4884600.926  -2983094.707   3824325.720
10 0 59628  13062.000000  0   -4510573.966  -2535364.377   4537889.641
10 0 59628  13182.000000  0   -4049555.725  -2050629.303   5171579.690
10 0 59628  13302.000000  0   -3509068.142  -1538830.869   5714275.362
10 0 59628  13422.000000  0   -2898194.252  -1010232.985   6156466.519
10 0 59628  13542.000000  0   -2227418.894   -475214.476   6490416.564
10 0 59628  13662.000000  0   -1508442.259     55936.240   6710291.171
10 0 59628  13782.000000  0    -753972.413    573217.576   6812252.853
10 0 59628  13902.000000  0      22499.769   1067101.647   6794523.772
10 0 59628  14022.000000  0     806941.295   1528709.202   6657414.868
10 0 59628  14142.000000  0    1585030.036   1949969.478   6403320.727
10 0 59628  14262.000000  0    2342415.313   2323761.290   6036679.729
10 0 59628  14382.000000  0    3064982.338   2644034.145   5563902.070
10 0 59628  14502.000000  0    3739118.006   2905908.281   4993264.192
10 0 59628  14622.000000  0    4351970.806   3105751.146   4334768.902
10 0 59628  14742.000000  0    4891700.222   3241228.613   3599976.051
10 0 59628  14862.000000  0    5347715.351   3311330.936   2801802.818
10 0 59628  14982.000000  0    5710889.605   3316369.142   1954294.398
10 0 59628  15102.000000  0    5973749.303   3257945.668   1072374.335
10 0 59628  15222.000000  0    6130632.392   3138897.905    171575.060
10 0 59628  15342.000000  0    6177810.670   2963215.103   -732244.596
10 0 59628  15462.000000  0    6113573.118   2735930.676  -1623187.381
10 0 59628  15582.000000  0    5938268.214   2462995.070  -2485604.284
10 0 59628  15702.000000  0    5654305.909   2151132.049  -3304375.999
10 0 59628  15822.000000  0    5266118.167   1807680.095  -4065181.626
10 0 59628  15942.000000  0    4780079.991   1440424.176  -4754750.017
10 0 59628  16062.000000  0    4204392.141   1057422.626  -5361086.764
10 0 59628  16182.000000  0    3548932.589    666834.265  -5873674.431
10 0 59628  16302.000000  0    2825078.739    276748.495  -6283645.478
10 0 59628  16422.000000  0    2045503.785   -104977.935  -6583924.097
10 0 59628  16542.000000  0    1223953.739   -470874.551  -6769336.987
10 0 59628  16662.000000  0     375006.856   -813999.294  -6836694.517
10 0 59628  16782.000000  0    -486181.849  -1128066.189  -6784838.437
10 0 59628  16902.000000  0   -1344144.036  -1407556.907  -6614659.115
10 0 59628  17022.000000  0   -2183369.556  -1647815.604  -6329082.718
10 0 59628  17142.000000  0   -2988580.808  -1845125.290  -5933025.389
10 0 59628  17262.000000  0   -3745005.153  -1996764.836  -5433317.976
10 0 59628  17382.000000  0   -4438645.755  -2101046.804  -4838600.640
10 0 59628  17502.000000  0   -5056543.860  -2157333.839  -4159184.443
10 0 59628  17622.000000  0   -5587026.919  -2166033.653  -3406883.215
10 0 59628  17742.000000  0   -6019938.593  -2128572.383  -2594816.021
10 0 59628  17862.000000  0   -6346843.779  -2047345.966  -1737182.666
10 0 59628  17982.000000  0   -6561204.129  -1925650.694   -849016.326
10 0 59628  18102.000000  0   -6658518.572  -1767594.157     54083.053
10 0 59628  18222.000000  0   -6636425.023  -1577988.387    956228.960
10 0 59628  18342.000000  0   -6494759.259  -1362227.507   1841536.420
10 0 59628  18462.000000  0   -6235569.095  -1126153.714   2694411.017
10 0 59628  18582.000000  0   -5863083.803   -875914.808   3499831.987
10 0 59628  18702.000000  0   -5383639.827   -617816.233   4243624.304
10 0 59628  18822.000000  0   -4805562.669   -358172.486   4912712.023
10 0 59628  18942.000000  0   -4139012.594   -103161.569   5495347.244
10 0 59628  19062.000000  0   -3395797.549    141314.862   5981314.591
10 0 59628  19182.000000  0   -2589154.737    369761.994   6362106.312
10 0 59628  19302.000000  0   -1733507.920    577209.724   6631065.173
10 0 59628  19422.000000  0    -844204.758    759316.409   6783495.171
10 0 59628  19542.000000  0      62760.335    912457.135   6816737.470
10 0 59628  19662.000000  0     971033.254   1033794.231   6730213.313
10 0 59628  19782.000000  0    1864193.886   1121329.820   6525433.600
10 0 59628  19902.000000  0    2726051.946   1173938.968   6205974.166
10 0 59628  20022.000000  0    3540940.831   1191382.845   5777418.058
10 0 59628  20142.000000  0    4294005.259   1174301.917   5247262.755
10 0 59628  20262.000000  0    4971475.301   1124189.369   4624795.290
10 0 59628  20382.000000  0    5560926.281   1043345.202   3920936.970
10 0 59628  20502.000000  0    6051517.174    934812.013   3148054.420
10 0 59628  20622.000000  0    6434199.167    802293.138   2319741.914
10 0 59628  20742.000000  0    6701891.784    650054.908   1450581.297
10 0 59628  20862.000000  0    6849622.735    482816.209    555879.653
10 0 59628  20982.000000  0    6874625.225    305626.912   -348607.254
10 0 59628  21102.000000  0    6776391.754    123738.734  -1246961.898
10 0 59628  21222.000000  0    6556681.118    -57527.801  -2123394.071
10 0 59628  21342.000000  0    6219479.811   -232917.500  -2962525.467
10 0 59628  21462.000000  0    5770920.154   -397372.073  -3749664.145
10 0 59628  21582.000000  0    5219156.603   -546155.498  -4471063.567
10 0 59628  21702.000000  0    4574203.961   -674969.657  -5114159.953
10 0 59628  21822.000000  0    3847744.242   -780058.100  -5667784.324
10 0 59628  21942.000000  0    3052906.007   -858297.002  -6122348.042
10 0 59628  22062.000000  0    2204020.182   -907270.409  -6469998.224
10 0 59628  22182.000000  0    1316359.056   -925327.666  -6704741.506
10 0 59628  22302.000000  0     405863.312   -911624.553  -6822537.291
10 0 59628  22422.000000  0    -511140.337   -866145.663  -6821359.962
10 0 59628  22542.000000  0   -1418225.062   -789708.446  -6701229.403
10 0 59628  22662.000000  0   -2299151.672   -683948.799  -6464211.106
10 0 59628  22782.000000  0   -3138152.823   -551288.303  -6114383.125
10 0 59628  22902.000000  0   -3920209.062   -394883.940  -5657773.984
10 0 59628  23022.000000  0   -4631317.458   -218560.507  -5102270.165
10 0 59628  23142.000000  0   -5258744.739    -26726.867  -4457490.660
10 0 59628  23262.000000  0   -5791261.912    175722.215  -3734632.610
10 0 59628  23382.000000  0   -6219356.280    383518.245  -2946286.155
10 0 59628  23502.000000  0   -6535413.871    591141.952  -2106221.352
10 0 59628  23622.000000  0   -6733867.938    792955.326  -1229150.131
10 0 59628  23742.000000  0   -6811310.674    983338.283   -330466.832
10 0 59628  23862.000000  0   -6766560.438   1156827.289    574029.051
10 0 59628  23982.000000  0   -6600684.459   1308252.329   1468417.009
10 0 59628  24102.000000  0   -6316978.208   1432869.053   2336944.273
10 0 59628  24222.000000  0   -5920899.105   1526482.032   3164312.779
10 0 59628  24342.000000  0   -5419955.849   1585555.707   3935956.803
10 0 59628  24462.000000  0   -4823557.138   1607310.448   4638304.114
10 0 59628  24582.000000  0   -4142825.263   1589801.621   5259015.889
10 0 59628  24702.000000  0   -3390379.813   1531979.926   5787201.937
10 0 59628  24822.000000  0   -2580096.019   1433731.861   6213609.073
10 0 59628  24942.000000  0   -1726841.073   1295899.885   6530779.069
10 0 59628  25062.000000  0    -846195.442   1120280.827   6733171.995
10 0 59628  25182.000000  0      45833.405    909603.756   6817255.989
10 0 59628  25302.000000  0     933101.296    667487.368   6781564.592
10 0 59628  25422.000000  0    1799618.234    398377.872   6626720.601
10 0 59628  25542.000000  0    2629835.210    107468.115   6355426.221
10 0 59628  25662.000000  0    3408923.450   -199401.263   5972420.212
10 0 59628  25782.000000  0    4123041.836   -515857.081   5484399.895
10 0 59628  25902.000000  0    4759586.792   -835123.245   4899909.906
10 0 59628  26022.000000  0    5307421.452  -1150162.572   4229198.772
10 0 59628  26142.000000  0    5757078.882  -1453827.969   3484043.566
10 0 59628  26262.000000  0    6100935.526  -1739020.219   2677545.220
10 0 59628  26382.000000  0    6333349.606  -1998848.217   1823897.167
10 0 59628  26502.000000  0    6450761.150  -2226788.063    938132.039
99
